#dP2024  7  4  6  0  0.00000000      96 __u+U IGS20 EXT  IAC
## 2321 367200.00000000   900.00000000 60495 0.2500000000000
+   54   G02G03G04G05G06G07G08G09G10G11G12G13G14G15G16G17G18
+        G19G20G21G22G23G24G25G26G27G28G29G30G31G32R01R02R03
+        R04R05R07R08R09R11R12R13R14R15R16R17R18R19R20R21R22
+        R24R25R26  0  0  0  0  0  0  0  0  0  0  0  0  0  0
+          0  0  0  0  0  0  0  0  0  0  0  0  0  0  0  0  0
++         9  8  9  9  9  7  8  9  9  9  8  8  8  9  7  8  9
++         8  7  8  8  7  8  8  7  9  8 10  8  9  8 10  7  8
++         6  8  8  7  8  8  8  7  8  8  8  8  9 11  9  8  7
++         8  8  8  0  0  0  0  0  0  0  0  0  0  0  0  0  0
++         0  0  0  0  0  0  0  0  0  0  0  0  0  0  0  0  0
%c M  cc GPS ccc cccc cccc cccc cccc ccccc ccccc ccccc ccccc
%c cc cc ccc ccc cccc cccc cccc cccc ccccc ccccc ccccc ccccc
%f  0.0000000  0.000000000  0.00000000000  0.000000000000000
%f  0.0000000  0.000000000  0.00000000000  0.000000000000000
%i    0    0    0    0      0      0      0      0         0
%i    0    0    0    0      0      0      0      0         0
/* IAC                                ULTRA-RAPID PREDICTION
/* S/V CLOCKS ARE ALIGNED TO GNSS TIME                      
/* G:C1WC2W R:C1PC2P E:C1XC5X C:C2IC6I J:C1CC2S             
/* PCV:IGS20_2317 OL/AL:FES2004  NONE     YN ORB:CoN CLK:CoN
*  2024 07 04 21 30  0.00000000
PG02 -14368.217051  19319.139474  11340.104143   -405.302840
PG03 -17735.080984  12530.186883 -15373.371084    443.771229
PG04  -8111.947544  13821.808249 -21141.252759    397.049586
PG05  26102.265410  -5095.190550    571.878989   -178.624979
PG06   8559.088608  14301.714892 -20590.456310    180.808802
PG07  -4102.112512  24887.795126   8036.509607    -76.918556
PG08 -16171.584860   3550.135953  20739.647837    260.089049
PG09   3328.015050  21379.409906 -15452.913363    260.349884
PG10 -14504.009485 -11206.825040  19549.876587    -58.073992
PG11  16026.625579    271.329121 -21144.839279   -698.744079
PG12  20319.637127 -10720.905333 -13564.571988   -519.601382
PG13  17972.141724   6352.969231  18382.705316    662.391836
PG14  10388.239106  13670.471161  20356.162763    441.121699
PG15  15577.001911  -5747.544782  20262.710198    177.454888
PG16 -26710.238916   -572.286836  -2489.635847   -245.826095
PG17  12676.778969  23037.454745   3471.084046    683.699941
PG18   4607.326139 -24689.783961   8321.231470   -632.915690
PG19  17107.499433  19678.970543  -6259.007038    505.796295
PG20  24693.396955   -798.290531  -9478.438803    373.114246
PG21 -15836.564191  14231.272045  15614.743548    111.085870
PG22  17547.344943  11063.765192  16836.038428    -35.616733
PG23  -1339.024669 -14767.767795  22053.080487    266.084565
PG24  14673.675793 -18184.229155  11808.474512   -481.581135
PG25  10023.653089 -15489.422101 -19351.542854    498.164187
PG26 -21660.680543  -6342.007007 -14437.753821    125.747954
PG27 -20003.135650  -8135.608284  15447.982146    -30.275894
PG28  -8062.762525 -16549.247470 -19154.837818   -317.479837
PG29   1212.394054 -19965.147928 -17460.235872   -591.159454
PG30   4329.638042  20639.792737  16135.971481   -363.338047
PG31 -14639.557841  -5114.269948 -21791.195468   -226.993289
PG32 -15544.413770 -21628.630093   1573.001849   -613.734347
PR01 -11882.051164   5223.170077 -21956.762995     90.381463
PR02   4341.704579  14050.331810 -20780.422376    -23.566315
PR03  18648.227254  15523.362943  -7732.961223    103.266963
PR04  22148.582862   8750.609824   9152.906528    243.981074
PR05  13948.068279  -2815.309648  21175.315893    134.088740
PR07 -19026.319930 -15469.660908   7152.855827     85.971515
PR08 -22222.103487  -8454.449920  -9223.882520     -5.590490
PR09   8503.713386 -15623.875833 -18296.654481    195.882350
PR11 -20055.612490   2908.913631 -15462.823202     19.241393
PR12 -21336.639982  13636.795213   3146.353679     42.074310
PR13 -11163.206259  15680.908602  16730.646009    -48.988151
PR14   8358.328447   7981.775884  22759.355589     26.658274
PR15  20878.605098  -3807.387576  14184.189960     78.201751
PR16  21402.654408 -13615.333378  -2861.411151     27.064896
PR17   6270.617618  19804.683220 -14833.183825    101.712622
PR18  10243.570556   4132.644308 -22978.589014    150.314740
PR19   9942.501300 -11684.945994 -20380.369539   -282.727623
PR20   3106.755028 -25167.784960  -2919.338746   -115.620119
PR21  -5909.511872 -20063.300880  14572.454452   -114.805224
PR22 -10697.094703  -3158.148384  22963.102222     93.578684
PR24  -1790.374137  25348.240105   2369.519363    -62.479035
PR25  -5831.447831 -19774.103385  15006.513739    -94.690790
PR26 -22433.991817  -9076.206405  -8004.626948     -4.788219
*  2024 07 04 21 45  0.00000000
PG02 -14189.230565  17940.634510  13710.505389   -405.296340
PG03 -19344.587433  12641.704835 -13146.775386    443.786596
PG04  -9640.575208  11902.240233 -21672.356199    397.056664
PG05  26070.752942  -4866.882646  -2299.109933   -178.626202
PG06   7644.397412  16405.950155 -19337.886702    180.788831
PG07  -4634.744923  25450.493132   5315.678012    -76.911020
PG08 -17654.795822   1746.856831  19780.484674    260.104311
PG09   1980.557951  20080.387478 -17328.323074    260.363205
PG10 -12292.426094 -11628.097770  20765.643987    -58.082283
PG11  15097.589653   2543.425977 -21675.295951   -698.750615
PG12  21711.901961 -10648.073768 -11207.642176   -519.604265
PG13  18919.337167   8157.088067  16681.275738    662.394082
PG14   8055.635608  14068.937154  21109.101852    441.129770
PG15  17268.351744  -4084.383505  19313.268586    177.458647
PG16 -26325.806012   -814.849428  -5276.178375   -245.816462
PG17  12185.969859  22759.984300   6279.991808    683.693691
PG18   5106.884628 -25348.829748   5576.152024   -632.919576
PG19  17235.392308  20231.025947  -3484.208652    505.801155
PG20  23607.220809   -148.714084 -11953.615475    373.113879
PG21 -15546.768408  12380.286978  17514.684002    111.083637
PG22  15603.793561  11362.030156  18534.131596    -35.620975
PG23   1118.162375 -15212.924119  21742.485926    266.092669
PG24  14557.836252 -16598.321859  14038.997100   -481.582885
PG25  12096.669853 -15714.441871 -17881.980010    498.164580
PG26 -20030.526941  -6965.610165 -16361.050520    125.741930
PG27 -20945.693018  -9532.926210  13329.436914    -30.276926
PG28  -7257.113634 -18496.837055 -17634.318350   -317.494469
PG29   2513.895132 -18335.253299 -19052.252787   -591.157904
PG30   3493.111143  22168.160312  14148.000767   -363.332311
PG31 -13707.583062  -7375.745494 -21714.013503   -226.993003
PG32 -15163.969922 -21535.009353   4393.916737   -613.732799
PR01 -14242.196384   4046.748016 -20767.570653     90.382552
PR02   2073.268883  12675.365230 -21982.745566    -23.566333
PR03  17720.904636  14835.621162 -10687.211554    103.267823
PR04  23047.169132   9070.563447   6105.451429    243.982489
PR05  16171.392738  -1626.246167  19662.488711    134.089274
PR07 -18179.022270 -14813.478735  10135.256560     85.972337
PR08 -23134.179050  -8789.473486  -6191.307792     -5.590612
PR09  10264.002660 -16824.327792 -16221.242813    195.884308
PR11 -18255.137552   1925.665862 -17686.601706     19.240276
PR12 -21428.765458  13846.607645    -50.375746     42.074738
PR13 -12747.302333  16770.519789  14377.623886    -48.988417
PR14   5954.892768   9446.297979  22951.726677     26.658349
PR15  19207.637226  -2915.585777  16560.741544     78.201502
PR16  21456.476474 -13829.249516    345.692342     27.065282
PR17   6438.032690  21472.925611 -12213.048286    101.715681
PR18  10270.026233   6931.989414 -22279.057036    150.316516
PR19   9754.701068  -9087.252988 -21749.997667   -282.729146
PR20   2866.452410 -24619.203566  -6101.288019   -115.620750
PR21  -6069.316792 -21702.106445  11914.706784   -114.808132
PR22 -10636.110285  -5952.981632  22430.925941     93.573471
PR24  -1640.928893  24861.228026   5535.053626    -62.480320
PR25  -5892.764112 -21470.551734  12427.740185    -94.692605
PR26 -23209.992320  -9327.529120  -4911.543846     -4.787329
EOF
